OSCAR 7 (AO-7)          
1 07530U 74089B   26164.95257612 -.00000028  00000+0  11230-3 0  9999
2 07530 101.9901 178.1655 0012535 136.1273 292.1126 12.53698061360115
PHASE 3B (AO-10)        
1 14129U 83058B   26164.48490246  .00000072  00000+0  00000+0 0  9994
2 14129  25.9094 220.1781 6012114 114.6492 317.6358  2.05869395295412
UOSAT 2 (UO-11)         
1 14781U 84021B   26164.86535554  .00001244  00000+0  13219-3 0  9995
2 14781  97.8057 130.4772 0007318 183.8219 176.2945 14.90776132256630
LUSAT (LO-19)           
1 20442U 90005G   26164.62375740  .00000112  00000+0  56807-4 0  9992
2 20442  98.8851 186.3311 0010924 212.0527 147.9994 14.34122217901887
EYESAT A (AO-27)        
1 22825U 93061C   26164.92322447  .00000093  00000+0  52473-4 0  9996
2 22825  98.6880 232.3379 0009505 108.1298 252.0921 14.30941454706534
ITAMSAT (IO-26)         
1 22826U 93061D   26164.90361064  .00000087  00000+0  49710-4 0  9996
2 22826  98.6828 232.2354 0010099  93.5562 266.6776 14.31368256706847
RADIO ROSTO (RS15)      
1 23439U 94085A   26164.83448460 -.00000063  00000+0 -57429-3 0  9993
2 23439  64.8187 308.6384 0155840   4.4971 355.7313 11.27583550295524
JAS-2 (FO-29)           
1 24278U 96046B   26164.83618927  .00000019  00000+0  52289-4 0  9990
2 24278  98.5242  14.1674 0350862 105.1048 258.9185 13.53274110472717
TECHSAT 1B (GO-32)      
1 25397U 98043D   26164.90345441  .00000056  00000+0  44229-4 0  9994
2 25397  99.0066 157.5792 0000883 170.1525 189.9670 14.24427873450869
ISS (ZARYA)             
1 25544U 98067A   26164.83523428  .00008738  00000+0  16534-3 0  9991
2 25544  51.6333 316.6832 0004955 182.4672 177.6293 15.49214103571238
PCSAT (NO-44)           
1 26931U 01043C   26164.94642615  .00000105  00000+0  70015-4 0  9997
2 26931  67.0507 252.6539 0006075 264.5916  95.4493 14.31955079289985
SAUDISAT 1C (SO-50)     
1 27607U 02058C   26164.64880849  .00000986  00000+0  13345-3 0  9994
2 27607  64.5509 139.9331 0075334 263.1310  96.1222 14.83040079263931
CUTE-1 (CO-55)          
1 27844U 03031E   26164.94626113  .00000270  00000+0  13581-3 0  9992
2 27844  98.6736 173.5458 0009311 187.4250 172.6793 14.24333937191218
CUBESAT XI-IV (CO-57)   
1 27848U 03031J   26164.58167660  .00000234  00000+0  12199-3 0  9997
2 27848  98.6767 172.9014 0008793 208.1063 151.9642 14.23619125190861
MOZHAETS 4 (RS22)       
1 27939U 03042A   26164.96058409  .00001237  00000+0  19883-3 0  9993
2 27939  98.3466 349.2287 0009974 281.5005 182.3389 14.73463118215070
CUBESAT XI-V            
1 28895U 05043F   26164.39375696  .00001317  00000+0  21486-3 0  9996
2 28895  98.2979 319.9359 0013416 213.2696 146.7669 14.72622172101196
CUTE-1.7+APD II (CO-65) 
1 32785U 08021C   26164.93421374  .00004989  00000+0  31577-3 0  9993
2 32785  97.8270 146.2850 0010183  49.3116 310.8995 15.09426226984703
SEEDS II (CO-66)        
1 32791U 08021J   26164.93655223  .00018728  00000+0  59582-3 0  9994
2 32791  97.7509 162.6789 0001549  14.7739 345.3547 15.32650243986791
YUBILEINY (RS30)        
1 32953U 08025A   26164.95981889  .00000039  00000+0  20776-3 0  9999
2 32953  82.5045 357.4488 0018986 321.1803  38.7912 12.43179228819295
KKS-1 (KISEKI)          
1 33499U 09002H   26164.88328157  .00001280  00000+0  16385-3 0  9996
2 33499  98.1192  87.2731 0006698 308.6582  51.4031 14.83116674935708
SWISSCUBE               
1 35932U 09051B   26164.67936614  .00000937  00000+0  19470-3 0  9990
2 35932  98.4039  72.5065 0005755 215.4372 144.6447 14.62475781888647
BEESAT-1                
1 35933U 09051C   26164.68697727  .00000783  00000+0  16700-3 0  9993
2 35933  98.3968  72.1570 0004054 230.6846 129.3995 14.61715545888676
ITUPSAT1                
1 35935U 09051E   26164.67480330  .00000706  00000+0  15577-3 0  9990
2 35935  98.4053  71.3404 0006156 247.1048 112.9502 14.60435999888227
XIWANG-1 (HOPE-1)       
1 36122U 09072B   26164.89991917  .00000082  00000+0  33125-3 0  9990
2 36122 100.4020 118.7842 0006838 239.6177 120.4261 13.16440267792574
O/OREOS (USA 219)       
1 37224U 10062C   26164.91462841  .00002343  00000+0  22675-3 0  9997
2 37224  71.9713  87.7520 0012457  70.2312 290.0201 14.93732295116154
JUGNU                   
1 37839U 11058B   26164.76137355  .00000404  00000+0  71673-4 0  9996
2 37839  19.9621 329.2415 0018600  38.5860 351.9026 14.13775870758549
SRMSAT                  
1 37841U 11058D   26164.49266569  .00000360  00000+0  51406-4 0  9992
2 37841  19.9718  81.8294 0011872 162.9750 353.0513 14.11574841757297
STRAND-1                
1 39090U 13009E   26164.78378247  .00000262  00000+0  10240-3 0  9998
2 39090  98.3921 345.1020 0007577 236.8114 123.2347 14.37161544696572
ZACUBE-1 (TSHEPISOSAT)  
1 39417U 13066B   26164.94118747  .00003518  00000+0  27465-3 0  9993
2 39417  97.8083 127.2606 0040455 259.0353 100.6319 15.01171980680243
GOMX-1                  
1 39430U 13066Q   26164.91747219  .00002271  00000+0  34412-3 0  9992
2 39430  97.6487   5.5875 0130204  87.9333 273.6778 14.69450187669438
